[{"OBJECT_NAME":"GEESAT-3 08","OBJECT_ID":"2024-159H","EPOCH":"2026-03-09T22:22:53.260032","MEAN_MOTION":14.83813348,"ECCENTRICITY":0.00278455,"INCLINATION":50.0035,"RA_OF_ASC_NODE":183.2774,"ARG_OF_PERICENTER":72.9833,"MEAN_ANOMALY":287.4154,"EPHEMERIS_TYPE":0,"CLASSIFICATION_TYPE":"U","NORAD_CAT_ID":61018,"ELEMENT_SET_NO":999,"REV_AT_EPOCH":8203,"BSTAR":0.00040891226,"MEAN_MOTION_DOT":3.215e-5,"MEAN_MOTION_DDOT":0},{"OBJECT_NAME":"COSMOS 2251 DEB","OBJECT_ID":"1993-036BLQ","EPOCH":"2026-03-06T05:04:26.488416","MEAN_MOTION":14.86505912,"ECCENTRICITY":0.00311046,"INCLINATION":73.9007,"RA_OF_ASC_NODE":25.3512,"ARG_OF_PERICENTER":209.5027,"MEAN_ANOMALY":150.4399,"EPHEMERIS_TYPE":0,"CLASSIFICATION_TYPE":"U","NORAD_CAT_ID":37487,"ELEMENT_SET_NO":999,"REV_AT_EPOCH":82483,"BSTAR":0.004490224,"MEAN_MOTION_DOT":0.00040284,"MEAN_MOTION_DDOT":0}]
